[{"OBJECT_NAME":"ONEWEB-0138","OBJECT_ID":"2020-100AC","EPOCH":"2026-04-13T16:57:46.098720","MEAN_MOTION":13.12441497,"ECCENTRICITY":0.000189,"INCLINATION":87.9011,"RA_OF_ASC_NODE":3.4721,"ARG_OF_PERICENTER":72.6536,"MEAN_ANOMALY":287.4799,"EPHEMERIS_TYPE":0,"CLASSIFICATION_TYPE":"U","NORAD_CAT_ID":47284,"ELEMENT_SET_NO":999,"REV_AT_EPOCH":25619,"BSTAR":0.0011628,"MEAN_MOTION_DOT":4.31e-06,"MEAN_MOTION_DDOT":0.0},{"OBJECT_NAME":"ONEWEB-0139","OBJECT_ID":"2020-100AD","EPOCH":"2026-04-13T23:25:51.434400","MEAN_MOTION":13.12442557,"ECCENTRICITY":0.0001838,"INCLINATION":87.9012,"RA_OF_ASC_NODE":3.4052,"ARG_OF_PERICENTER":77.6404,"MEAN_ANOMALY":282.4931,"EPHEMERIS_TYPE":0,"CLASSIFICATION_TYPE":"U","NORAD_CAT_ID":47285,"ELEMENT_SET_NO":999,"REV_AT_EPOCH":25630,"BSTAR":-0.0011892,"MEAN_MOTION_DOT":-4.15e-06,"MEAN_MOTION_DDOT":0.0},{"OBJECT_NAME":"ONEWEB-0140","OBJECT_ID":"2020-100AE","EPOCH":"2026-04-13T16:50:27.131424","MEAN_MOTION":13.12442188,"ECCENTRICITY":0.0001922,"INCLINATION":87.9014,"RA_OF_ASC_NODE":3.4497,"ARG_OF_PERICENTER":81.4369,"MEAN_ANOMALY":278.6977,"EPHEMERIS_TYPE":0,"CLASSIFICATION_TYPE":"U","NORAD_CAT_ID":47286,"ELEMENT_SET_NO":999,"REV_AT_EPOCH":25623,"BSTAR":0.00090504,"MEAN_MOTION_DOT":3.38e-06,"MEAN_MOTION_DDOT":0.0},{"OBJECT_NAME":"ONEWEB-0141","OBJECT_ID":"2020-100AF","EPOCH":"2026-04-13T23:25:27.361632","MEAN_MOTION":13.12443084,"ECCENTRICITY":0.0001571,"INCLINATION":87.9036,"RA_OF_ASC_NODE":3.3999,"ARG_OF_PERICENTER":79.944,"MEAN_ANOMALY":280.1866,"EPHEMERIS_TYPE":0,"CLASSIFICATION_TYPE":"U","NORAD_CAT_ID":47287,"ELEMENT_SET_NO":999,"REV_AT_EPOCH":25625,"BSTAR":-0.0018265999999999998,"MEAN_MOTION_DOT":-6.44e-06,"MEAN_MOTION_DDOT":0.0},{"OBJECT_NAME":"ONEWEB-0142","OBJECT_ID":"2020-100AG","EPOCH":"2026-04-13T23:08:46.550688","MEAN_MOTION":13.12441491,"ECCENTRICITY":0.0001526,"INCLINATION":87.9012,"RA_OF_ASC_NODE":3.4274,"ARG_OF_PERICENTER":69.338,"MEAN_ANOMALY":290.7912,"EPHEMERIS_TYPE":0,"CLASSIFICATION_TYPE":"U","NORAD_CAT_ID":47288,"ELEMENT_SET_NO":999,"REV_AT_EPOCH":25624,"BSTAR":-0.00058675,"MEAN_MOTION_DOT":-1.98e-06,"MEAN_MOTION_DDOT":0.0},{"OBJECT_NAME":"ONEWEB-0143","OBJECT_ID":"2020-100AH","EPOCH":"2026-04-13T23:23:12.940512","MEAN_MOTION":13.1244184,"ECCENTRICITY":0.0001773,"INCLINATION":87.901,"RA_OF_ASC_NODE":3.4219,"ARG_OF_PERICENTER":79.1229,"MEAN_ANOMALY":281.0099,"EPHEMERIS_TYPE":0,"CLASSIFICATION_TYPE":"U","NORAD_CAT_ID":47289,"ELEMENT_SET_NO":999,"REV_AT_EPOCH":25622,"BSTAR":-0.0011931,"MEAN_MOTION_DOT":-4.16e-06,"MEAN_MOTION_DDOT":0.0},{"OBJECT_NAME":"ONEWEB-0144","OBJECT_ID":"2020-100AJ","EPOCH":"2026-04-13T22:41:44.648160","MEAN_MOTION":13.12439329,"ECCENTRICITY":0.0001735,"INCLINATION":87.906,"RA_OF_ASC_NODE":3.3954,"ARG_OF_PERICENTER":74.1582,"MEAN_ANOMALY":285.9737,"EPHEMERIS_TYPE":0,"CLASSIFICATION_TYPE":"U","NORAD_CAT_ID":47290,"ELEMENT_SET_NO":999,"REV_AT_EPOCH":25614,"BSTAR":0.0036575,"MEAN_MOTION_DOT":1.329e-05,"MEAN_MOTION_DDOT":0.0},{"OBJECT_NAME":"ONEWEB-0145","OBJECT_ID":"2020-100AK","EPOCH":"2026-04-13T11:01:35.211648","MEAN_MOTION":13.12442814,"ECCENTRICITY":0.0001775,"INCLINATION":87.9003,"RA_OF_ASC_NODE":3.5301,"ARG_OF_PERICENTER":76.0455,"MEAN_ANOMALY":284.0871,"EPHEMERIS_TYPE":0,"CLASSIFICATION_TYPE":"U","NORAD_CAT_ID":47291,"ELEMENT_SET_NO":999,"REV_AT_EPOCH":25627,"BSTAR":7.8079e-05,"MEAN_MOTION_DOT":4.1e-07,"MEAN_MOTION_DDOT":0.0},{"OBJECT_NAME":"ONEWEB-0146","OBJECT_ID":"2020-100AL","EPOCH":"2026-04-13T10:56:42.223200","MEAN_MOTION":13.12442556,"ECCENTRICITY":0.0001964,"INCLINATION":87.9012,"RA_OF_ASC_NODE":3.5179,"ARG_OF_PERICENTER":88.2181,"MEAN_ANOMALY":271.9173,"EPHEMERIS_TYPE":0,"CLASSIFICATION_TYPE":"U","NORAD_CAT_ID":47292,"ELEMENT_SET_NO":999,"REV_AT_EPOCH":25618,"BSTAR":-0.00033467,"MEAN_MOTION_DOT":-1.08e-06,"MEAN_MOTION_DDOT":0.0},{"OBJECT_NAME":"ONEWEB-0147","OBJECT_ID":"2020-100AM","EPOCH":"2026-04-13T22:56:22.466976","MEAN_MOTION":13.12439997,"ECCENTRICITY":0.0001935,"INCLINATION":87.9009,"RA_OF_ASC_NODE":3.3995,"ARG_OF_PERICENTER":77.5613,"MEAN_ANOMALY":282.5732,"EPHEMERIS_TYPE":0,"CLASSIFICATION_TYPE":"U","NORAD_CAT_ID":47293,"ELEMENT_SET_NO":999,"REV_AT_EPOCH":25614,"BSTAR":-6.6502e-06,"MEAN_MOTION_DOT":1e-07,"MEAN_MOTION_DDOT":0.0},{"OBJECT_NAME":"ONEWEB-0115","OBJECT_ID":"2021-025A","EPOCH":"2026-04-13T21:09:49.496832","MEAN_MOTION":13.13468132,"ECCENTRICITY":0.0001757,"INCLINATION":87.9,"RA_OF_ASC_NODE":333.0275,"ARG_OF_PERICENTER":84.2881,"MEAN_ANOMALY":275.8449,"EPHEMERIS_TYPE":0,"CLASSIFICATION_TYPE":"U","NORAD_CAT_ID":48042,"ELEMENT_SET_NO":999,"REV_AT_EPOCH":24515,"BSTAR":-0.0005686700000000001,"MEAN_MOTION_DOT":-1.95e-06,"MEAN_MOTION_DDOT":0.0},{"OBJECT_NAME":"ONEWEB-0152","OBJECT_ID":"2021-025B","EPOCH":"2026-04-13T21:29:19.445280","MEAN_MOTION":13.13468729,"ECCENTRICITY":0.0001831,"INCLINATION":87.8978,"RA_OF_ASC_NODE":333.0238,"ARG_OF_PERICENTER":85.6715,"MEAN_ANOMALY":274.4623,"EPHEMERIS_TYPE":0,"CLASSIFICATION_TYPE":"U","NORAD_CAT_ID":48043,"ELEMENT_SET_NO":999,"REV_AT_EPOCH":24511,"BSTAR":-0.00074154,"MEAN_MOTION_DOT":-2.58e-06,"MEAN_MOTION_DDOT":0.0},{"OBJECT_NAME":"ONEWEB-0153","OBJECT_ID":"2021-025C","EPOCH":"2026-04-13T20:57:38.406816","MEAN_MOTION":13.13468209,"ECCENTRICITY":0.0001635,"INCLINATION":87.8988,"RA_OF_ASC_NODE":333.033,"ARG_OF_PERICENTER":80.2186,"MEAN_ANOMALY":279.9128,"EPHEMERIS_TYPE":0,"CLASSIFICATION_TYPE":"U","NORAD_CAT_ID":48044,"ELEMENT_SET_NO":999,"REV_AT_EPOCH":24510,"BSTAR":1.4289e-05,"MEAN_MOTION_DOT":1.8e-07,"MEAN_MOTION_DDOT":0.0},{"OBJECT_NAME":"ONEWEB-0154","OBJECT_ID":"2021-025D","EPOCH":"2026-04-13T20:52:45.146208","MEAN_MOTION":13.134775,"ECCENTRICITY":0.0001759,"INCLINATION":87.8984,"RA_OF_ASC_NODE":333.0313,"ARG_OF_PERICENTER":81.421,"MEAN_ANOMALY":278.7118,"EPHEMERIS_TYPE":0,"CLASSIFICATION_TYPE":"U","NORAD_CAT_ID":48045,"ELEMENT_SET_NO":999,"REV_AT_EPOCH":24506,"BSTAR":0.0031692,"MEAN_MOTION_DOT":1.17e-05,"MEAN_MOTION_DDOT":0.0},{"OBJECT_NAME":"ONEWEB-0116","OBJECT_ID":"2021-025E","EPOCH":"2026-04-13T21:48:49.480128","MEAN_MOTION":13.13469505,"ECCENTRICITY":0.000184,"INCLINATION":87.8994,"RA_OF_ASC_NODE":333.0144,"ARG_OF_PERICENTER":86.0655,"MEAN_ANOMALY":274.0684,"EPHEMERIS_TYPE":0,"CLASSIFICATION_TYPE":"U","NORAD_CAT_ID":48046,"ELEMENT_SET_NO":999,"REV_AT_EPOCH":24521,"BSTAR":-2.5777e-05,"MEAN_MOTION_DOT":3e-08,"MEAN_MOTION_DDOT":0.0},{"OBJECT_NAME":"ONEWEB-0150","OBJECT_ID":"2021-025F","EPOCH":"2026-04-13T13:55:54.885504","MEAN_MOTION":13.13468518,"ECCENTRICITY":0.0001552,"INCLINATION":87.8998,"RA_OF_ASC_NODE":333.0772,"ARG_OF_PERICENTER":84.9342,"MEAN_ANOMALY":275.1965,"EPHEMERIS_TYPE":0,"CLASSIFICATION_TYPE":"U","NORAD_CAT_ID":48047,"ELEMENT_SET_NO":999,"REV_AT_EPOCH":24506,"BSTAR":-0.00074557,"MEAN_MOTION_DOT":-2.6e-06,"MEAN_MOTION_DDOT":0.0}]