{"generatedAt":"2026-04-14T07:56:45.725768Z","satellites":[{"name":"ONEWEB-0138","tle1":"1 47284U 20100AC  26103.70678355  .00000431  00000+0  11628-2 0  9998","tle2":"2 47284  87.9011   3.4721 0001890  72.6536 287.4799 13.12441497256192"},{"name":"ONEWEB-0139","tle1":"1 47285U 20100AD  26103.97628975 -.00000415  00000+0 -11892-2 0  9998","tle2":"2 47285  87.9012   3.4052 0001838  77.6404 282.4931 13.12442557256306"},{"name":"ONEWEB-0140","tle1":"1 47286U 20100AE  26103.70170291  .00000338  00000+0  90504-3 0  9993","tle2":"2 47286  87.9014   3.4497 0001922  81.4369 278.6977 13.12442188256238"},{"name":"ONEWEB-0141","tle1":"1 47287U 20100AF  26103.97601113 -.00000644  00000+0 -18266-2 0  9991","tle2":"2 47287  87.9036   3.3999 0001571  79.9440 280.1866 13.12443084256254"},{"name":"ONEWEB-0142","tle1":"1 47288U 20100AG  26103.96442767 -.00000198  00000+0 -58675-3 0  9992","tle2":"2 47288  87.9012   3.4274 0001526  69.3380 290.7912 13.12441491256240"},{"name":"ONEWEB-0143","tle1":"1 47289U 20100AH  26103.97445533 -.00000416  00000+0 -11931-2 0  9994","tle2":"2 47289  87.9010   3.4219 0001773  79.1229 281.0099 13.12441840256228"},{"name":"ONEWEB-0144","tle1":"1 47290U 20100AJ  26103.94565565  .00001329  00000+0  36575-2 0  9994","tle2":"2 47290  87.9060   3.3954 0001735  74.1582 285.9737 13.12439329256147"},{"name":"ONEWEB-0145","tle1":"1 47291U 20100AK  26103.45943532  .00000041  00000+0  78079-4 0  9992","tle2":"2 47291  87.9003   3.5301 0001775  76.0455 284.0871 13.12442814256273"},{"name":"ONEWEB-0146","tle1":"1 47292U 20100AL  26103.45604425 -.00000108  00000+0 -33467-3 0  9995","tle2":"2 47292  87.9012   3.5179 0001964  88.2181 271.9173 13.12442556256181"},{"name":"ONEWEB-0147","tle1":"1 47293U 20100AM  26103.95581559  .00000010  00000+0 -66502-5 0  9992","tle2":"2 47293  87.9009   3.3995 0001935  77.5613 282.5732 13.12439997256141"},{"name":"ONEWEB-0115","tle1":"1 48042U 21025A   26103.88182288 -.00000195  00000+0 -56867-3 0  9996","tle2":"2 48042  87.9000 333.0275 0001757  84.2881 275.8449 13.13468132245156"},{"name":"ONEWEB-0152","tle1":"1 48043U 21025B   26103.89536395 -.00000258  00000+0 -74154-3 0  9999","tle2":"2 48043  87.8978 333.0238 0001831  85.6715 274.4623 13.13468729245110"},{"name":"ONEWEB-0153","tle1":"1 48044U 21025C   26103.87336119  .00000018  00000+0  14289-4 0  9996","tle2":"2 48044  87.8988 333.0330 0001635  80.2186 279.9128 13.13468209245102"},{"name":"ONEWEB-0154","tle1":"1 48045U 21025D   26103.86996697  .00001170  00000+0  31692-2 0  9994","tle2":"2 48045  87.8984 333.0313 0001759  81.4210 278.7118 13.13477500245063"},{"name":"ONEWEB-0116","tle1":"1 48046U 21025E   26103.90890602  .00000003  00000+0 -25777-4 0  9993","tle2":"2 48046  87.8994 333.0144 0001840  86.0655 274.0684 13.13469505245212"},{"name":"ONEWEB-0150","tle1":"1 48047U 21025F   26103.58049636 -.00000260  00000+0 -74557-3 0  9996","tle2":"2 48047  87.8998 333.0772 0001552  84.9342 275.1965 13.13468518245064"}]}